{
  "norad_id": 62193,
  "name": "STARLINK-32688",
  "history": [
    {
      "epoch": "2026-03-28T16:06:36.860544",
      "apogee_km": 483.8527062814137,
      "perigee_km": 482.1859941808161,
      "latitude_deg": -1.878704158644611,
      "longitude_deg": 103.74095616000704,
      "semi_major_axis_km": 6861.156350231115,
      "eccentricity": 0.00012146,
      "inclination_deg": 43.0014,
      "raan_deg": 163.5809,
      "arg_perigee_deg": 251.0357,
      "mean_anomaly_deg": 109.0363,
      "mean_motion_rev_day": 15.27589934
    }
  ]
}